CCSDS_OMM_VERS = 2.0
CREATION_DATE  = 
ORIGINATOR     = 

OBJECT_NAME    = STARLINK-36240
OBJECT_ID      = 2025-298B
CENTER_NAME    = EARTH
REF_FRAME      = TEME
TIME_SYSTEM    = UTC
MEAN_ELEMENT_THEORY = SGP/SGP4

EPOCH          = 2025-12-28T20:00:01.000224
MEAN_MOTION    = 15.67303075
ECCENTRICITY   = .0003693
INCLINATION    = 69.9994
RA_OF_ASC_NODE = 204.2712
ARG_OF_PERICENTER = 276.0252
MEAN_ANOMALY   = 157.9569

EPHEMERIS_TYPE = 0
CLASSIFICATION_TYPE = U
NORAD_CAT_ID   = 67076
ELEMENT_SET_NO = 999
REV_AT_EPOCH   = 356
BSTAR          = -.18202E-1
MEAN_MOTION_DOT = -.1730122E-1
MEAN_MOTION_DDOT = 0

CCSDS_OMM_VERS = 2.0
CREATION_DATE  = 
ORIGINATOR     = 

OBJECT_NAME    = STARLINK-36243
OBJECT_ID      = 2025-298C
CENTER_NAME    = EARTH
REF_FRAME      = TEME
TIME_SYSTEM    = UTC
MEAN_ELEMENT_THEORY = SGP/SGP4

EPOCH          = 2025-12-28T20:00:01.000224
MEAN_MOTION    = 15.67289840
ECCENTRICITY   = .0003664
INCLINATION    = 69.9994
RA_OF_ASC_NODE = 204.2686
ARG_OF_PERICENTER = 276.4631
MEAN_ANOMALY   = 159.5995

EPHEMERIS_TYPE = 0
CLASSIFICATION_TYPE = U
NORAD_CAT_ID   = 67077
ELEMENT_SET_NO = 999
REV_AT_EPOCH   = 356
BSTAR          = -.18177E-1
MEAN_MOTION_DOT = -.1727186E-1
MEAN_MOTION_DDOT = 0

CCSDS_OMM_VERS = 2.0
CREATION_DATE  = 
ORIGINATOR     = 

OBJECT_NAME    = STARLINK-36236
OBJECT_ID      = 2025-298D
CENTER_NAME    = EARTH
REF_FRAME      = TEME
TIME_SYSTEM    = UTC
MEAN_ELEMENT_THEORY = SGP/SGP4

EPOCH          = 2025-12-28T20:00:01.000224
MEAN_MOTION    = 15.67291408
ECCENTRICITY   = .0003715
INCLINATION    = 69.9995
RA_OF_ASC_NODE = 204.2667
ARG_OF_PERICENTER = 276.2270
MEAN_ANOMALY   = 161.6951

EPHEMERIS_TYPE = 0
CLASSIFICATION_TYPE = U
NORAD_CAT_ID   = 67078
ELEMENT_SET_NO = 999
REV_AT_EPOCH   = 356
BSTAR          = -.18136E-1
MEAN_MOTION_DOT = -.1723941E-1
MEAN_MOTION_DDOT = 0

CCSDS_OMM_VERS = 2.0
CREATION_DATE  = 
ORIGINATOR     = 

OBJECT_NAME    = STARLINK-36159
OBJECT_ID      = 2025-298E
CENTER_NAME    = EARTH
REF_FRAME      = TEME
TIME_SYSTEM    = UTC
MEAN_ELEMENT_THEORY = SGP/SGP4

EPOCH          = 2025-12-28T20:00:01.000224
MEAN_MOTION    = 15.65003065
ECCENTRICITY   = .0003762
INCLINATION    = 69.9995
RA_OF_ASC_NODE = 204.2718
ARG_OF_PERICENTER = 274.8811
MEAN_ANOMALY   = 158.4586

EPHEMERIS_TYPE = 0
CLASSIFICATION_TYPE = U
NORAD_CAT_ID   = 67079
ELEMENT_SET_NO = 999
REV_AT_EPOCH   = 356
BSTAR          = -.27728E-1
MEAN_MOTION_DOT = -.2400411E-1
MEAN_MOTION_DDOT = 0

CCSDS_OMM_VERS = 2.0
CREATION_DATE  = 
ORIGINATOR     = 

OBJECT_NAME    = STARLINK-36158
OBJECT_ID      = 2025-298F
CENTER_NAME    = EARTH
REF_FRAME      = TEME
TIME_SYSTEM    = UTC
MEAN_ELEMENT_THEORY = SGP/SGP4

EPOCH          = 2025-12-28T20:00:01.000224
MEAN_MOTION    = 15.67270849
ECCENTRICITY   = .0003639
INCLINATION    = 69.9996
RA_OF_ASC_NODE = 204.2614
ARG_OF_PERICENTER = 276.3062
MEAN_ANOMALY   = 165.7327

EPHEMERIS_TYPE = 0
CLASSIFICATION_TYPE = U
NORAD_CAT_ID   = 67080
ELEMENT_SET_NO = 999
REV_AT_EPOCH   = 350
BSTAR          = -.18133E-1
MEAN_MOTION_DOT = -.1722298E-1
MEAN_MOTION_DDOT = 0

CCSDS_OMM_VERS = 2.0
CREATION_DATE  = 
ORIGINATOR     = 

OBJECT_NAME    = STARLINK-35864
OBJECT_ID      = 2025-298G
CENTER_NAME    = EARTH
REF_FRAME      = TEME
TIME_SYSTEM    = UTC
MEAN_ELEMENT_THEORY = SGP/SGP4

EPOCH          = 2025-12-28T20:00:01.000224
MEAN_MOTION    = 15.67270359
ECCENTRICITY   = .0003598
INCLINATION    = 69.9994
RA_OF_ASC_NODE = 204.2593
ARG_OF_PERICENTER = 276.2523
MEAN_ANOMALY   = 167.7274

EPHEMERIS_TYPE = 0
CLASSIFICATION_TYPE = U
NORAD_CAT_ID   = 67081
ELEMENT_SET_NO = 999
REV_AT_EPOCH   = 356
BSTAR          = -.18162E-1
MEAN_MOTION_DOT = -.1724658E-1
MEAN_MOTION_DDOT = 0

CCSDS_OMM_VERS = 2.0
CREATION_DATE  = 
ORIGINATOR     = 

OBJECT_NAME    = STARLINK-36035
OBJECT_ID      = 2025-298H
CENTER_NAME    = EARTH
REF_FRAME      = TEME
TIME_SYSTEM    = UTC
MEAN_ELEMENT_THEORY = SGP/SGP4

EPOCH          = 2025-12-28T20:00:01.000224
MEAN_MOTION    = 15.67262947
ECCENTRICITY   = .0003681
INCLINATION    = 69.9993
RA_OF_ASC_NODE = 204.2570
ARG_OF_PERICENTER = 275.6989
MEAN_ANOMALY   = 170.2756

EPHEMERIS_TYPE = 0
CLASSIFICATION_TYPE = U
NORAD_CAT_ID   = 67082
ELEMENT_SET_NO = 999
REV_AT_EPOCH   = 356
BSTAR          = -.18142E-1
MEAN_MOTION_DOT = -.1722582E-1
MEAN_MOTION_DDOT = 0

CCSDS_OMM_VERS = 2.0
CREATION_DATE  = 
ORIGINATOR     = 

OBJECT_NAME    = STARLINK-36170
OBJECT_ID      = 2025-298J
CENTER_NAME    = EARTH
REF_FRAME      = TEME
TIME_SYSTEM    = UTC
MEAN_ELEMENT_THEORY = SGP/SGP4

EPOCH          = 2025-12-28T20:00:01.000224
MEAN_MOTION    = 15.67256338
ECCENTRICITY   = .0003665
INCLINATION    = 69.9993
RA_OF_ASC_NODE = 204.2541
ARG_OF_PERICENTER = 276.3381
MEAN_ANOMALY   = 171.6491

EPHEMERIS_TYPE = 0
CLASSIFICATION_TYPE = U
NORAD_CAT_ID   = 67083
ELEMENT_SET_NO = 999
REV_AT_EPOCH   = 356
BSTAR          = -.18139E-1
MEAN_MOTION_DOT = -.1721938E-1
MEAN_MOTION_DDOT = 0

CCSDS_OMM_VERS = 2.0
CREATION_DATE  = 
ORIGINATOR     = 

OBJECT_NAME    = STARLINK-36166
OBJECT_ID      = 2025-298K
CENTER_NAME    = EARTH
REF_FRAME      = TEME
TIME_SYSTEM    = UTC
MEAN_ELEMENT_THEORY = SGP/SGP4

EPOCH          = 2025-12-28T20:00:01.000224
MEAN_MOTION    = 15.67252605
ECCENTRICITY   = .0003607
INCLINATION    = 69.9992
RA_OF_ASC_NODE = 204.2518
ARG_OF_PERICENTER = 276.6930
MEAN_ANOMALY   = 173.2542

EPHEMERIS_TYPE = 0
CLASSIFICATION_TYPE = U
NORAD_CAT_ID   = 67084
ELEMENT_SET_NO = 999
REV_AT_EPOCH   = 350
BSTAR          = -.18125E-1
MEAN_MOTION_DOT = -.1720512E-1
MEAN_MOTION_DDOT = 0

CCSDS_OMM_VERS = 2.0
CREATION_DATE  = 
ORIGINATOR     = 

OBJECT_NAME    = STARLINK-35794
OBJECT_ID      = 2025-298L
CENTER_NAME    = EARTH
REF_FRAME      = TEME
TIME_SYSTEM    = UTC
MEAN_ELEMENT_THEORY = SGP/SGP4

EPOCH          = 2025-12-28T20:00:01.000224
MEAN_MOTION    = 15.67251251
ECCENTRICITY   = .0003668
INCLINATION    = 69.9994
RA_OF_ASC_NODE = 204.2498
ARG_OF_PERICENTER = 276.9185
MEAN_ANOMALY   = 174.9738

EPHEMERIS_TYPE = 0
CLASSIFICATION_TYPE = U
NORAD_CAT_ID   = 67085
ELEMENT_SET_NO = 999
REV_AT_EPOCH   = 356
BSTAR          = -.18134E-1
MEAN_MOTION_DOT = -.1721204E-1
MEAN_MOTION_DDOT = 0

CCSDS_OMM_VERS = 2.0
CREATION_DATE  = 
ORIGINATOR     = 

OBJECT_NAME    = STARLINK-35841
OBJECT_ID      = 2025-298M
CENTER_NAME    = EARTH
REF_FRAME      = TEME
TIME_SYSTEM    = UTC
MEAN_ELEMENT_THEORY = SGP/SGP4

EPOCH          = 2025-12-28T20:00:01.000224
MEAN_MOTION    = 15.67242253
ECCENTRICITY   = .0003558
INCLINATION    = 69.9995
RA_OF_ASC_NODE = 204.2470
ARG_OF_PERICENTER = 276.4688
MEAN_ANOMALY   = 177.4820

EPHEMERIS_TYPE = 0
CLASSIFICATION_TYPE = U
NORAD_CAT_ID   = 67086
ELEMENT_SET_NO = 999
REV_AT_EPOCH   = 356
BSTAR          = -.1817E-1
MEAN_MOTION_DOT = -.1723545E-1
MEAN_MOTION_DDOT = 0

CCSDS_OMM_VERS = 2.0
CREATION_DATE  = 
ORIGINATOR     = 

OBJECT_NAME    = STARLINK-35842
OBJECT_ID      = 2025-298N
CENTER_NAME    = EARTH
REF_FRAME      = TEME
TIME_SYSTEM    = UTC
MEAN_ELEMENT_THEORY = SGP/SGP4

EPOCH          = 2025-12-28T20:00:01.000224
MEAN_MOTION    = 15.59820971
ECCENTRICITY   = .0003837
INCLINATION    = 69.9997
RA_OF_ASC_NODE = 204.3164
ARG_OF_PERICENTER = 272.5820
MEAN_ANOMALY   = 121.8096

EPHEMERIS_TYPE = 0
CLASSIFICATION_TYPE = U
NORAD_CAT_ID   = 67087
ELEMENT_SET_NO = 999
REV_AT_EPOCH   = 356
BSTAR          = -.3575E-1
MEAN_MOTION_DOT = -.2508703E-1
MEAN_MOTION_DDOT = 0

