STARLINK-36240          
1 67076U 25298B   25362.83334491 -.01730122  00000+0 -18202-1 0  9996
2 67076  69.9994 204.2712 0003693 276.0252 157.9569 15.67303075  3560
STARLINK-36243          
1 67077U 25298C   25362.83334491 -.01727186  00000+0 -18177-1 0  9994
2 67077  69.9994 204.2686 0003664 276.4631 159.5995 15.67289840  3568
STARLINK-36236          
1 67078U 25298D   25362.83334491 -.01723941  00000+0 -18136-1 0  9995
2 67078  69.9995 204.2667 0003715 276.2270 161.6951 15.67291408  3562
STARLINK-36159          
1 67079U 25298E   25362.83334491 -.02400411  00000+0 -27728-1 0  9998
2 67079  69.9995 204.2718 0003762 274.8811 158.4586 15.65003065  3563
STARLINK-36158          
1 67080U 25298F   25362.83334491 -.01722298  00000+0 -18133-1 0  9999
2 67080  69.9996 204.2614 0003639 276.3062 165.7327 15.67270849  3505
STARLINK-35864          
1 67081U 25298G   25362.83334491 -.01724658  00000+0 -18162-1 0  9994
2 67081  69.9994 204.2593 0003598 276.2523 167.7274 15.67270359  3560
STARLINK-36035          
1 67082U 25298H   25362.83334491 -.01722582  00000+0 -18142-1 0  9997
2 67082  69.9993 204.2570 0003681 275.6989 170.2756 15.67262947  3565
STARLINK-36170          
1 67083U 25298J   25362.83334491 -.01721938  00000+0 -18139-1 0  9998
2 67083  69.9993 204.2541 0003665 276.3381 171.6491 15.67256338  3568
STARLINK-36166          
1 67084U 25298K   25362.83334491 -.01720512  00000+0 -18125-1 0  9991
2 67084  69.9992 204.2518 0003607 276.6930 173.2542 15.67252605  3503
STARLINK-35794          
1 67085U 25298L   25362.83334491 -.01721204  00000+0 -18134-1 0  9991
2 67085  69.9994 204.2498 0003668 276.9185 174.9738 15.67251251  3562
STARLINK-35841          
1 67086U 25298M   25362.83334491 -.01723545  00000+0 -18170-1 0  9992
2 67086  69.9995 204.2470 0003558 276.4688 177.4820 15.67242253  3567
STARLINK-35842          
1 67087U 25298N   25362.83334491 -.02508703  00000+0 -35750-1 0  9994
2 67087  69.9997 204.3164 0003837 272.5820 121.8096 15.59820971  3564
